{"ok":true,"license":"CC BY 4.0 -  https:\/\/creativecommons.tankerkoenig.de","data":"MTS-K","status":"ok","stations":[{"id":"474e5046-deaf-4f9b-9a32-9797b778f047","name":"TotalEnergies Berlin","brand":"TotalEnergies","street":"Margarete-Sommer-Str.","place":"Berlin","lat":52.530831,"lng":13.440946,"dist":1.1,"diesel":2.059,"e5":2.009,"e10":1.949,"isOpen":true,"houseNumber":"2","postCode":10407},{"id":"4429a7d9-fb2d-4c29-8cfe-2ca90323f9f8","name":"TotalEnergies Berlin","brand":"TotalEnergies","street":"Holzmarktstr.","place":"Berlin","lat":52.511399,"lng":13.428477,"dist":1.2,"diesel":2.069,"e5":1.949,"e10":1.889,"isOpen":true,"houseNumber":"36-42","postCode":10243},{"id":"278130b1-e062-4a0f-80cc-19e486b4c024","name":"Aral Tankstelle","brand":"ARAL","street":"Holzmarktstra\u00dfe","place":"Berlin","lat":52.5141525,"lng":13.4214869,"dist":1.4,"diesel":2.089,"e5":1.969,"e10":1.909,"isOpen":true,"houseNumber":"12\/14","postCode":10179},{"id":"1c4f126b-1f3c-4b38-9692-05c400ea8e61","name":"Sprint Berlin Kniprodestr.","brand":"Sprint","street":"Kniprodestr.","place":"Berlin","lat":52.53389,"lng":13.444949,"dist":1.5,"diesel":2.039,"e5":1.999,"e10":1.939,"isOpen":true,"houseNumber":"25","postCode":10407},{"id":"38e0e779-b0f1-46ae-a35b-09f8e37024a1","name":"TotalEnergies Berlin","brand":"TotalEnergies","street":"Storkower Str.","place":"Berlin","lat":52.52744,"lng":13.457798,"dist":1.5,"diesel":2.059,"e5":2.009,"e10":1.949,"isOpen":true,"houseNumber":"174","postCode":10369},{"id":"94e70fc4-b22f-4e5a-877f-bc1082cdae81","name":"TotalEnergies Berlin","brand":"TotalEnergies","street":"Prenzlauer Allee","place":"Berlin","lat":52.528899,"lng":13.41808,"dist":1.6,"diesel":2.049,"e5":1.969,"e10":1.909,"isOpen":true,"houseNumber":"1-4","postCode":10405},{"id":"51d4b6a9-a095-1aa0-e100-80009459e03a","name":"JET BERLIN STORKOWER STR. 126-130","brand":"JET","street":"STORKOWER STR.","place":"BERLIN","lat":52.5337,"lng":13.4521,"dist":1.7,"diesel":2.039,"e5":1.999,"e10":1.939,"isOpen":true,"houseNumber":"126-130","postCode":10407},{"id":"579d25fd-acb9-445a-9494-f7fe0fa7ce4a","name":"Elan Berlin","brand":"ELAN","street":"Storkower Str.","place":"Berlin","lat":52.535342,"lng":13.450748,"dist":1.8,"diesel":2.049,"e5":1.999,"e10":1.939,"isOpen":true,"houseNumber":"116","postCode":10407},{"id":"1723edea-8e01-4de3-8c5e-ca227a49e2c3","name":"Shell Berlin Skalitzer Str. 48","brand":"Shell","street":"Skalitzer Str.","place":"Berlin","lat":52.499217,"lng":13.433074,"dist":2.4,"diesel":2.089,"e5":1.969,"e10":1.909,"isOpen":true,"houseNumber":"48","postCode":10997},{"id":"448e4ee6-3404-4868-b7e6-ea59a5c78eb9","name":"Aral Tankstelle","brand":"ARAL","street":"Skalitzer Stra\u00dfe","place":"Berlin","lat":52.498703,"lng":13.4225378,"dist":2.7,"diesel":2.099,"e5":1.979,"e10":1.919,"isOpen":true,"houseNumber":"26","postCode":10999},{"id":"594eafdd-3537-45ae-8bf0-d667aaa25454","name":"Shell Berlin Oranienstr. 138","brand":"Shell","street":"Oranienstr.","place":"Berlin","lat":52.504122,"lng":13.408138,"dist":2.8,"diesel":2.079,"e5":1.989,"e10":1.929,"isOpen":true,"houseNumber":"138","postCode":10969},{"id":"c1d9c3c2-a6de-4111-8e63-81bee1189b50","name":"Aral Tankstelle","brand":"ARAL","street":"Vor dem Schlesischen Tor","place":"Berlin","lat":52.4968567,"lng":13.4496136,"dist":2.8,"diesel":2.069,"e5":1.949,"e10":1.889,"isOpen":true,"houseNumber":"","postCode":10997},{"id":"813ed58c-b58d-4d17-895b-2078cb302649","name":"Aral Tankstelle","brand":"ARAL","street":"Prinzenstra\u00dfe","place":"Berlin","lat":52.5018959,"lng":13.4098387,"dist":2.9,"diesel":2.069,"e5":1.959,"e10":1.899,"isOpen":true,"houseNumber":"29","postCode":10969},{"id":"51d4b660-a095-1aa0-e100-80009459e03a","name":"JET BERLIN HERZBERGSTR. 27","brand":"JET","street":"HERZBERGSTR.","place":"BERLIN","lat":52.5262,"lng":13.4886,"dist":3.5,"diesel":1.999,"e5":1.959,"e10":1.899,"isOpen":true,"houseNumber":"27","postCode":10365},{"id":"a0f35e83-2d97-4bfb-b90e-f068fe8c73e1","name":"TotalEnergies Berlin","brand":"TotalEnergies","street":"Indira-Gandhi-Str.","place":"Berlin","lat":52.547499,"lng":13.46808,"dist":3.6,"diesel":2.049,"e5":1.949,"e10":1.889,"isOpen":true,"houseNumber":"106-109","postCode":13053},{"id":"8953fadc-921c-4040-959c-4c6bde9d9eae","name":"Shell Berlin Buchberger Str. 30","brand":"Shell","street":"Buchberger Str.","place":"Berlin","lat":52.507044,"lng":13.485837,"dist":3.6,"diesel":2.029,"e5":1.919,"e10":1.859,"isOpen":true,"houseNumber":"30","postCode":10365},{"id":"d40ad39a-73ba-476f-af0f-d8cfe3046dd7","name":"Aral Tankstelle","brand":"ARAL","street":"Brunnenstra\u00dfe","place":"Berlin","lat":52.5407867,"lng":13.3934574,"dist":3.7,"diesel":2.079,"e5":1.949,"e10":1.889,"isOpen":true,"houseNumber":"119","postCode":13355},{"id":"c9dc3f9b-e10a-47b4-a3fe-451b2cb1daad","name":"Aral Tankstelle","brand":"ARAL","street":"Frankfurter Allee","place":"Berlin","lat":52.51144,"lng":13.4938612,"dist":3.9,"diesel":2.029,"e5":1.929,"e10":1.869,"isOpen":true,"houseNumber":"214","postCode":10365}]}